LAPAN-A3                
1 41603U 16040E   23225.10298227  .00002567  00000+0  11247-3 0  9997
2 41603  97.1644 248.0408 0014353 112.8246 247.4509 15.22770940396155
BIROS                   
1 41604U 16040F   23224.08893284  .00007267  00000+0  25072-3 0  9991
2 41604  97.1607 257.7191 0012079  82.9895 277.2719 15.30193492396649
SWAYAM                  
1 41607U 16040J   23225.08962968  .01503865  16218-2  16127-2 0  9998
2 41607  97.1221 278.0833 0008033 245.4136 114.6312 16.10434961398005
BEESAT-4                
1 41619U 16040W   23225.09245467  .00195290  00000+0  12794-2 0  9993
2 41619  97.1477 275.6702 0001568 137.7179 222.4207 15.75210056385784
3CAT-2                  
1 41732U 16051B   23224.34975055  .00058466  00000+0  74337-3 0  9996
2 41732  97.3890 158.1361 0007353 169.4363 190.7049 15.59169396390219
PRATHAM                 
1 41783U 16059A   23224.81857131  .00000767  00000+0  15398-3 0  9999
2 41783  97.8664 253.4075 0031479 281.6938  78.0733 14.64067621367261
ALSAT 1N                
1 41789U 16059G   23225.09126071  .00000958  00000+0  18438-3 0  9998
2 41789  97.8651 259.1805 0026278 259.7708 100.0533 14.65553079367609
CARTOSAT-2D             
1 41948U 17008A   23224.82529213  .00005827  00000+0  27945-3 0  9998
2 41948  97.4734 283.3824 0004363 289.4589  70.6174 15.19274971359775
ZHUHAI-1 02 (CAS-4B)    
1 42759U 17034B   23225.10885410  .00008803  00000+0  43038-3 0  9992
2 42759  43.0146 159.0200 0009583 113.2594 246.9264 15.18419300340286
ZHUHAI-1 01 (CAS-4A)    
1 42761U 17034D   23225.12490146  .00009709  00000+0  47327-3 0  9996
2 42761  43.0133 157.4559 0010396 114.1882 246.0054 15.18426734340296
UCLSAT                  
1 42765U 17036A   23224.82837155  .00074085  00000+0  95343-3 0  9993
2 42765  97.1361 263.6558 0004994 203.6964 156.4063 15.58804176342092
NIUSAT                  
1 42766U 17036B   23224.82143753  .00030097  00000+0  69141-3 0  9990
2 42766  97.1533 254.9615 0007426 244.2410 115.8072 15.42609957341339
CARTOSAT-2E             
1 42767U 17036C   23225.10475541  .00005901  00000+0  28251-3 0  9999
2 42767  97.4004 283.5818 0006242 357.5330   2.5873 15.19316192340388
AALTO-1                 
1 42775U 17036L   23224.98727770  .00019390  00000+0  52465-3 0  9998
2 42775  97.1495 253.4616 0007333 252.0964 107.9482 15.37708828341247
URSA MAIOR              
1 42776U 17036M   23224.06207295  .00022839  00000+0  57304-3 0  9992
2 42776  97.1501 254.0796 0006973 248.5319 111.5184 15.40000300341182
MAX VALIER SAT          
1 42778U 17036P   23224.81727228  .00025151  00000+0  59609-3 0  9990
2 42778  97.1502 258.4169 0005668 240.5205 119.5477 15.41718975341440
PEGASUS                 
1 42784U 17036V   23224.83924173  .00052696  00000+0  85601-3 0  9992
2 42784  97.1429 261.7480 0005307 215.3546 144.7357 15.52538044341756
SUCHAI                  
1 42788U 17036Z   23224.57920805  .00149608  00000+0  12562-2 0  9990
2 42788  97.1355 266.3283 0005953 201.3154 158.7862 15.69429336342104
SKCUBE                  
1 42789U 17036AA  23224.85215432  .00080216  00000+0  99838-3 0  9996
2 42789  97.1380 264.4003 0005794 205.7313 154.3657 15.59663870341925
ROBUSTA 1B              
1 42792U 17036AD  23224.84128780  .00119735  00000+0  11709-2 0  9997
2 42792  97.1357 266.0118 0005489 195.6128 164.4964 15.65751075342049
D-SAT                   
1 42794U 17036AF  23224.72535763  .00005353  00000+0  41776-3 0  9997
2 42794  97.4675 214.1794 0117708 111.3096 250.0739 14.96148667334412
NORSAT 2                
1 42828U 17042D   23224.50661934  .00005289  00000+0  47190-3 0  9992
2 42828  97.3921  62.1313 0013917  37.2247 322.9938 14.96288787331024
TECHNOSAT               
1 42829U 17042E   23225.06086143  .00002216  00000+0  21286-3 0  9993
2 42829  97.3875  59.1086 0014239  39.5208 320.7048 14.93930945330985
2017-042F               
1 42830U 17042F   23224.97039043  .00012344  00000+0  90256-3 0  9997
2 42830  97.4064  67.7133 0011204 357.3258   2.7907 15.03703989331408
FLYING LAPTOP           
1 42831U 17042G   23224.11177002  .00001446  00000+0  14291-3 0  9998
2 42831  97.3899  58.4847 0014538  43.7623 316.4747 14.93281228330836
CORVUS BC2              
1 42846U 17042X   23225.02470338  .00002883  00000+0  26813-3 0  9992
2 42846  97.3839  62.8833 0009528  31.2577 328.9210 14.95028117331217
CORVUS BC1              
1 42847U 17042Y   23224.07542389  .00002324  00000+0  21656-3 0  9993
2 42847  97.3837  62.3511 0009262  31.9435 328.2346 14.95117692331084
CZ-4C R/B               
1 43012U 17072C   23224.17181576  .00000631  00000+0  13728-3 0  9999
2 43012  98.6431 282.1149 0127506 109.4252 252.0775 14.56809087305109
RADFXSAT (FOX-1B)       
1 43017U 17073E   23224.92864020  .00004286  00000+0  30007-3 0  9999
2 43017  97.6225 107.0402 0229208 241.5907 116.2038 14.86945911309611
EAGLESAT 1              
1 43018U 17073F   23224.23619006  .00009911  00000+0  61827-3 0  9990
2 43018  97.6286 110.8193 0209220 229.4949 128.7879 14.93290667309655
INS-1C                  
1 43116U 18004F   23224.67180595  .00079543  00000+0  10047-2 0  9993
2 43116  97.3340 307.7381 0004084 257.0832 102.9969 15.59285376311153
FLOCK 3P'-4             
1 43122U 18004M   23224.96384120  .01303483  10110-2  18903-2 0  9991
2 43122  97.3235 306.1359 0014741 285.4561  74.5092 16.05297694311076
PICSAT                  
1 43132U 18004X   23224.67490580  .00153865  00000+0  12323-2 0  9998
2 43132  97.3216 310.0308 0005026 243.3180 116.7568 15.70567901311372
CNUSAIL-1               
1 43133U 18004Y   23225.16843182  .00034211  00000+0  68525-3 0  9993
2 43133  97.3248 303.1981 0004389 286.7056  73.3712 15.46658459310990
2018-004Z               
1 43134U 18004Z   23223.49152426  .00070937  00000+0  92443-3 0  9993
2 43134  97.3258 305.8244 0003975 262.1969  97.8835 15.58487217310996
FOX-1D (AO-92)          
1 43137U 18004AC  23224.68895589  .00044784  00000+0  78260-3 0  9994
2 43137  97.3252 304.6588 0003705 282.4570  77.6267 15.50527885311045
XIAOXIANG-2             
1 43155U 18008A   23225.07855377  .00020511  00000+0  75423-3 0  9993
2 43155  97.2944 276.3021 0014135 108.7138 251.5637 15.27820510307334
ZHOU ENLAI              
1 43156U 18008B   23225.12772353  .00020703  00000+0  74276-3 0  9990
2 43156  97.2991 276.5613 0011687 109.5654 250.6849 15.28659721307270
QUANTUTONG 1            
1 43158U 18008D   23225.06352148  .00016878  00000+0  68022-3 0  9991
2 43158  97.3008 273.1497 0012086 113.4164 246.8346 15.24836952307086
S-NET D                 
1 43186U 18014G   23224.79343101  .00003767  00000+0  30003-3 0  9998
2 43186  97.6197 127.5125 0015177 351.5894   8.5073 15.00876222302047
S-NET B                 
1 43187U 18014H   23224.99478465  .00003727  00000+0  29691-3 0  9990
2 43187  97.6195 127.6350 0015732 348.7209  11.3660 15.00872911302070
S-NET A                 
1 43188U 18014J   23224.99480800  .00003765  00000+0  29989-3 0  9999
2 43188  97.6201 127.7271 0015669 348.8205  11.2668 15.00875518302071
S-NET C                 
1 43189U 18014K   23224.99738787  .00003751  00000+0  29869-3 0  9992
2 43189  97.6202 127.6149 0016546 344.0789  15.9913 15.00869058300621
LUOJIA-1 01             
1 43485U 18048B   23225.08437447  .00002047  00000+0  28288-3 0  9999
2 43485  97.9041 304.2223 0009372 276.2106  83.8038 14.79144818280149
CZ-4B R/B               
1 43656U 18081B   23224.72947805  .00000183  00000+0  72870-4 0  9996
2 43656  99.4509  39.0593 0207572  15.1694 345.5585 14.30895857250596
CUBEBEL-1 (BSUSAT-1)    
1 43666U 18083E   23225.05954295  .00035661  00000+0  83463-3 0  9995
2 43666  97.3769 257.1353 0006327 265.9270  94.1254 15.42026255265957
CHANGSHAGAOXIN (TY 4-01)
1 43669U 18083H   23225.10735423  .00027989  00000+0  75568-3 0  9995
2 43669  97.3765 251.4747 0004376 268.1508  91.9236 15.37722978265685
TEN-KOH                 
1 43677U 18084G   23224.37147959  .00001934  00000+0  18991-3 0  9993
2 43677  98.0203   5.3237 0014288 327.1730  32.8600 14.93338469260442
DIWATA-2B               
1 43678U 18084H   23225.13594841  .00001619  00000+0  15898-3 0  9998
2 43678  98.0303  10.2833 0008975 341.1615  18.9271 14.93627126260760
STARS-AO                
1 43679U 18084J   23224.68015540  .00004665  00000+0  40659-3 0  9999
2 43679  98.0292  13.4072 0007459 340.1001  19.9928 14.97371574260882
AUTCUBE 2               
1 43681U 18084K   23224.36146494  .00004211  00000+0  38103-3 0  9998
2 43681  98.0272  10.9017 0007888 341.9464  18.1475 14.95965199260701
METOP-C                 
1 43689U 18087A   23225.13623068  .00000142  00000+0  84974-4 0  9999
2 43689  98.6794 283.7134 0001687 248.3876 111.7122 14.21456593247214
ES'HAIL 2               
1 43700U 18090A   23224.27110411  .00000136  00000+0  00000+0 0  9990
2 43700   0.0244 101.3767 0002207  79.6890 262.7929  1.00270868 17491
REAKTOR HELLO WORLD     
1 43743U 18096AA  23224.22630307  .00102616  00000+0  93231-3 0  9997
2 43743  97.3137 313.1615 0006316 314.0972  45.9768 15.67635175262921
ELYSIUM STAR 2 & LFF    
1 43760U 18099C   23224.94851745  .00013474  00000+0  87890-3 0  9996
2 43760  97.5632 289.9002 0007377 262.8177  97.2213 15.07976132256403
2018-099D               
1 43761U 18099D   23224.45679616  .00003056  00000+0  26423-3 0  9998
2 43761  97.5708 284.0338 0011656 299.8062  60.2001 14.97863712255999
AISTECHSAT 2            
1 43768U 18099L   23225.12653872  .00003806  00000+0  31948-3 0  9997
2 43768  97.5667 283.1553 0008402 299.0469  60.9912 14.98896098255775
FOX-1CLIFF (AO-95)      
1 43770U 18099N   23225.05561976  .00005753  00000+0  46068-3 0  9997
2 43770  97.5735 285.0639 0013345 322.3332  37.6957 15.00474559256130
RANGE-A                 
1 43772U 18099Q   23225.12504221  .00007712  00000+0  58675-3 0  9991
2 43772  97.5704 288.0646 0006016 244.2245 115.8359 15.02371744256219
